{
  "type": "FeatureCollection",
  "features": [
    {
      "type": "Feature",
      "properties": {
        "norad_id": 43719,
        "name": "HYSIS",
        "group": "resource",
        "lat": 1.409187800763533,
        "lon": -131.15653393940326,
        "alt_km": 636.9680788985379,
        "timestamp": "2025-12-11T15:53:39.199884+00:00",
        "meta_object_name": "HYSIS",
        "meta_object_id": "2018-096A",
        "meta_epoch": "2025-12-11T06:58:09.615648",
        "meta_mean_motion": 14.78640996,
        "meta_eccentricity": 0.00014827,
        "meta_inclination": 98.0093,
        "meta_ra_of_asc_node": 48.275,
        "meta_arg_of_pericenter": 59.1716,
        "meta_mean_anomaly": 300.964,
        "meta_ephemeris_type": 0,
        "meta_classification_type": "U",
        "meta_norad_cat_id": 43719,
        "meta_element_set_no": 999,
        "meta_rev_at_epoch": 37965,
        "meta_bstar": 0.00039747608,
        "meta_mean_motion_dot": 2.86e-05,
        "meta_mean_motion_ddot": 0,
        "tle_line1": "1 43719U 18096A   25345.29038907  .00002860  00000+0  39748-3 0  9994",
        "tle_line2": "2 43719  98.0093  48.2750 0001482  59.1716 300.9640 14.78640996379651"
      },
      "geometry": {
        "type": "Point",
        "coordinates": [
          -131.15653393940326,
          1.409187800763533
        ]
      }
    },
    {
      "type": "Feature",
      "properties": {
        "norad_id": 43783,
        "name": "KAZSTSAT",
        "group": "resource",
        "lat": -25.421875833598374,
        "lon": 24.46226264600593,
        "alt_km": 570.4386372303206,
        "timestamp": "2025-12-11T15:53:39.199894+00:00",
        "meta_object_name": "KAZSTSAT",
        "meta_object_id": "2018-099AB",
        "meta_epoch": "2025-12-11T01:35:34.662624",
        "meta_mean_motion": 14.99344949,
        "meta_eccentricity": 0.00059901,
        "meta_inclination": 97.4559,
        "meta_ra_of_asc_node": 20.3232,
        "meta_arg_of_pericenter": 337.2682,
        "meta_mean_anomaly": 22.8276,
        "meta_ephemeris_type": 0,
        "meta_classification_type": "U",
        "meta_norad_cat_id": 43783,
        "meta_element_set_no": 999,
        "meta_rev_at_epoch": 38311,
        "meta_bstar": 0.00018724349,
        "meta_mean_motion_dot": 2.234e-05,
        "meta_mean_motion_ddot": 0,
        "tle_line1": "1 43783U 18099AB  25345.06637341  .00002234  00000+0  18724-3 0  9996",
        "tle_line2": "2 43783  97.4559  20.3232 0005990 337.2682  22.8276 14.99344949383111"
      },
      "geometry": {
        "type": "Point",
        "coordinates": [
          24.46226264600593,
          -25.421875833598374
        ]
      }
    },
    {
      "type": "Feature",
      "properties": {
        "norad_id": 43831,
        "name": "SAUDISAT 5A",
        "group": "resource",
        "lat": -73.09567741676958,
        "lon": 70.9531715684035,
        "alt_km": 503.42747315888664,
        "timestamp": "2025-12-11T15:53:39.199905+00:00",
        "meta_object_name": "SAUDISAT 5A",
        "meta_object_id": "2018-102A",
        "meta_epoch": "2025-12-11T06:46:37.267392",
        "meta_mean_motion": 15.25641937,
        "meta_eccentricity": 0.00117995,
        "meta_inclination": 97.3352,
        "meta_ra_of_asc_node": 45.5012,
        "meta_arg_of_pericenter": 80.7426,
        "meta_mean_anomaly": 279.5147,
        "meta_ephemeris_type": 0,
        "meta_classification_type": "U",
        "meta_norad_cat_id": 43831,
        "meta_element_set_no": 999,
        "meta_rev_at_epoch": 38700,
        "meta_bstar": 0.00083946451,
        "meta_mean_motion_dot": 0.00021364,
        "meta_mean_motion_ddot": 0,
        "tle_line1": "1 43831U 18102A   25345.28237578  .00021364  00000+0  83946-3 0  9990",
        "tle_line2": "2 43831  97.3352  45.5012 0011799  80.7426 279.5147 15.25641937387007"
      },
      "geometry": {
        "type": "Point",
        "coordinates": [
          70.9531715684035,
          -73.09567741676958
        ]
      }
    },
    {
      "type": "Feature",
      "properties": {
        "norad_id": 43833,
        "name": "SAUDISAT 5B",
        "group": "resource",
        "lat": -23.80939442382612,
        "lon": 51.87316247540617,
        "alt_km": 495.63626125303927,
        "timestamp": "2025-12-11T15:53:39.199916+00:00",
        "meta_object_name": "SAUDISAT 5B",
        "meta_object_id": "2018-102C",
        "meta_epoch": "2025-12-11T06:33:24.372000",
        "meta_mean_motion": 15.25993936,
        "meta_eccentricity": 0.00124788,
        "meta_inclination": 97.3446,
        "meta_ra_of_asc_node": 48.2282,
        "meta_arg_of_pericenter": 83.0053,
        "meta_mean_anomaly": 277.2604,
        "meta_ephemeris_type": 0,
        "meta_classification_type": "U",
        "meta_norad_cat_id": 43833,
        "meta_element_set_no": 999,
        "meta_rev_at_epoch": 38711,
        "meta_bstar": 0.00082798963,
        "meta_mean_motion_dot": 0.000213,
        "meta_mean_motion_ddot": 0,
        "tle_line1": "1 43833U 18102C   25345.27319875  .00021300  00000+0  82799-3 0  9997",
        "tle_line2": "2 43833  97.3446  48.2282 0012478  83.0053 277.2604 15.25993936387113"
      },
      "geometry": {
        "type": "Point",
        "coordinates": [
          51.87316247540617,
          -23.80939442382612
        ]
      }
    },
    {
      "type": "Feature",
      "properties": {
        "norad_id": 44622,
        "name": "GAOFEN-10R",
        "group": "resource",
        "lat": 81.36882587138787,
        "lon": -135.22988813286253,
        "alt_km": 608.9323843957582,
        "timestamp": "2025-12-11T15:53:39.199926+00:00",
        "meta_object_name": "GAOFEN-10R",
        "meta_object_id": "2019-066A",
        "meta_epoch": "2025-12-11T07:24:24.894144",
        "meta_mean_motion": 14.82792183,
        "meta_eccentricity": 0.00079405,
        "meta_inclination": 98.0276,
        "meta_ra_of_asc_node": 292.8093,
        "meta_arg_of_pericenter": 46.0136,
        "meta_mean_anomaly": 314.1731,
        "meta_ephemeris_type": 0,
        "meta_classification_type": "U",
        "meta_norad_cat_id": 44622,
        "meta_element_set_no": 999,
        "meta_rev_at_epoch": 33453,
        "meta_bstar": 0.000658108,
        "meta_mean_motion_dot": 5.272e-05,
        "meta_mean_motion_ddot": 0,
        "tle_line1": "1 44622U 19066A   25345.30862146  .00005272  00000+0  65811-3 0  9998",
        "tle_line2": "2 44622  98.0276 292.8093 0007940  46.0136 314.1731 14.82792183334538"
      },
      "geometry": {
        "type": "Point",
        "coordinates": [
          -135.22988813286253,
          81.36882587138787
        ]
      }
    },
    {
      "type": "Feature",
      "properties": {
        "norad_id": 44804,
        "name": "CARTOSAT-3",
        "group": "resource",
        "lat": 69.24493512671457,
        "lon": -114.517411293306,
        "alt_km": 491.98156826136164,
        "timestamp": "2025-12-11T15:53:39.199936+00:00",
        "meta_object_name": "CARTOSAT-3",
        "meta_object_id": "2019-081A",
        "meta_epoch": "2025-12-11T05:55:54.095232",
        "meta_mean_motion": 15.19354787,
        "meta_eccentricity": 0.00139486,
        "meta_inclination": 97.4581,
        "meta_ra_of_asc_node": 44.8496,
        "meta_arg_of_pericenter": 91.8478,
        "meta_mean_anomaly": 268.4355,
        "meta_ephemeris_type": 0,
        "meta_classification_type": "U",
        "meta_norad_cat_id": 44804,
        "meta_element_set_no": 999,
        "meta_rev_at_epoch": 33493,
        "meta_bstar": 0.00042959846,
        "meta_mean_motion_dot": 9.04e-05,
        "meta_mean_motion_ddot": 0,
        "tle_line1": "1 44804U 19081A   25345.24715388  .00009040  00000+0  42960-3 0  9992",
        "tle_line2": "2 44804  97.4581  44.8496 0013948  91.8478 268.4355 15.19354787334938"
      },
      "geometry": {
        "type": "Point",
        "coordinates": [
          -114.517411293306,
          69.24493512671457
        ]
      }
    },
    {
      "type": "Feature",
      "properties": {
        "norad_id": 44819,
        "name": "GAOFEN-12 01",
        "group": "resource",
        "lat": 1.938543403770211,
        "lon": -8.294755702466807,
        "alt_km": 630.4670872036868,
        "timestamp": "2025-12-11T15:53:39.199947+00:00",
        "meta_object_name": "GAOFEN-12 01",
        "meta_object_id": "2019-082A",
        "meta_epoch": "2025-12-11T06:09:14.533344",
        "meta_mean_motion": 14.80654453,
        "meta_eccentricity": 0.00012474,
        "meta_inclination": 97.8127,
        "meta_ra_of_asc_node": 351.5763,
        "meta_arg_of_pericenter": 243.0169,
        "meta_mean_anomaly": 117.0916,
        "meta_ephemeris_type": 0,
        "meta_classification_type": "U",
        "meta_norad_cat_id": 44819,
        "meta_element_set_no": 999,
        "meta_rev_at_epoch": 32628,
        "meta_bstar": 0.00010932629,
        "meta_mean_motion_dot": 7.89e-06,
        "meta_mean_motion_ddot": 0,
        "tle_line1": "1 44819U 19082A   25345.25641821  .00000789  00000+0  10933-3 0  9996",
        "tle_line2": "2 44819  97.8127 351.5763 0001247 243.0169 117.0916 14.80654453326287"
      },
      "geometry": {
        "type": "Point",
        "coordinates": [
          -8.294755702466807,
          1.938543403770211
        ]
      }
    }
  ]
}